0 ASTRA 3A
1 27400U 02015B   19081.79369854 -.00000303  00000-0  00000+0 0  9997
2 27400   5.0403  65.7384 0003576 293.3318  59.6683  1.00272833 62214
0 INTELSAT 903
1 27403U 02016A   19081.79683904 -.00000248  00000-0  00000+0 0  9994
2 27403   1.2465  92.2566 0002404 310.5801  32.5056  1.00272686 62140
0 NSS 7
1 27414U 02019A   19081.79910716 -.00000179  00000-0  00000+0 0  9996
2 27414   3.2477  79.5199 0002446 272.0803  96.0669  1.00272515 62053
0 DIRECTV 5 (TEMPO 1)
1 27426U 02023A   19080.64830736 -.00000081  00000-0  00000+0 0  9992
2 27426   0.0190 246.8831 0003497 120.0744 295.1575  1.00271099 61792
0 INTELSAT 905
1 27438U 02027A   19081.79823480 -.00000209  00000-0  00000+0 0  9996
2 27438   0.2308 101.0035 0002974 265.6269  76.2194  1.00271259 61459
0 EXPRESS 4A
1 27441U 02029A   19081.39458566 -.00000265  00000-0  00000+0 0  9999
2 27441   7.1148  52.6832 0010103  64.2827 350.1922  1.00277719 61464
0 GALAXY 3C
1 27445U 02030A   19080.43937581 -.00000177  00000-0  00000+0 0  9990
2 27445   0.0225 268.9175 0001989  68.4329 264.4093  1.00272943 61430
0 EUTE 5 WEST A (STELLAT5)
1 27460U 02035A   19081.38799274 -.00000068  00000-0  00000+0 0  9991
2 27460   0.0203 293.9536 0006050  76.5546 303.7505  1.00269953 61237
0 NSTAR C
1 27461U 02035B   19081.83016315 -.00000332  00000-0  00000+0 0  9994
2 27461   5.8102  61.3498 0004694 341.7719 211.7802  1.00271348 61154
0 EUTE 8 WEST C (HB 6)
1 27499U 02038A   19081.81323937  .00000083  00000-0  00000+0 0  9999
2 27499   2.1920  86.0502 0006388 258.4846 179.0838  0.99322718 60621
0 METEOSAT 8 (MSG 1)
1 27509U 02040B   19081.52421104  .00000118  00000-0  00000+0 0  9996
2 27509   5.9428  55.9180 0002525   6.2928 347.8350  1.00264563 60746
0 INTELSAT 906
1 27513U 02041A   19081.78105205 -.00000010  00000-0  00000+0 0  9993
2 27513   0.0210 216.9153 0002405 167.3414 141.0426  1.00272252 60462
0 DRTS
1 27516U 02042B   19080.89090258 -.00000182 +00000-0 +00000-0 0  9990
2 27516 006.1943 058.8132 0015858 184.0634 002.6868 00.99272718019337
0 HISPASAT 30W-4
1 27528U 02044A   19081.79710074 -.00000242  00000-0  00000+0 0  9996
2 27528   0.0503  63.0827 0005976 303.1183  70.5369  1.00270728 60447
0 EUTE 25C (EUTE W5)
1 27554U 02051A   19080.89177494 -.00000381 +00000-0 +00000-0 0  9991
2 27554 002.7640 083.2963 0016252 256.6518 270.4136 01.00345540022283
0 TDRS 10
1 27566U 02055A   19081.34624537  .00000074  00000-0  00000+0 0  9991
2 27566   6.1310  55.6188 0010265 271.2596 166.4327  1.00280410 59715
0 NSS 6
1 27603U 02057A   19081.84521353 -.00000294  00000-0  00000+0 0  9997
2 27603   0.0323 112.0698 0002482 206.3131 260.9152  1.00272470 59582
0 NIMIQ 2
1 27632U 02062A   19081.70670851  .00000001  00000-0  00000+0 0  9993
2 27632   3.3570  78.7857 0002331 310.0233 282.3771  1.00271293 59361
0 INTELSAT 907
1 27683U 03007A   19081.79762417 -.00000227  00000-0  00000+0 0  9999
2 27683   0.0188 202.1747 0002660 162.6548  74.8017  1.00271576 58889
0 USA 167
1 27691U 03008A   19081.54758253  .00000037  00000-0  00000+0 0  9993
2 27691   5.8084  61.2370 0004275 311.5808 233.8895  1.00272153  5111
0 USA 169
1 27711U 03012A   19081.06052578 -.00000024  00000-0  00000+0 0  9992
2 27711   8.3950  47.8537 0003521 332.6224  60.5478  1.00270767  5131
0 INSAT 3A
1 27714U 03013A   19081.51646503 -.00000106  00000-0  00000+0 0  9994
2 27714   2.5445  84.3957 0016924 254.7499 111.7757  0.99796579 58408
0 GALAXY 12
1 27715U 03013B   19081.70557444  .00000034  00000-0  00000+0 0  9990
2 27715   0.4473  96.2031 0002131 277.6026 291.0829  1.00271820 58498
0 ASIASAT 4
1 27718U 03014A   19081.25674565  .00000128  00000-0  00000+0 0  9992
2 27718   0.0235 132.4777 0000588  63.9962 113.6185  1.00273015 58405
0 COSMOS 2397
1 27775U 03015A   19081.60826380  .00000080  00000-0  00000+0 0  9996
2 27775   9.8070  37.3299 0046526 303.2497 271.1229  1.00474917 58378
0 GSAT 2
1 27807U 03018A   19081.72973878 -.00000160  00000-0  00000+0 0  9993
2 27807   6.1529  58.9690 0009469 269.5454 106.4334  0.99857957 58057
0 HELLAS-SAT 2
1 27811U 03020A   19082.00855340 -.00000174  00000-0  00000+0 0  9991
2 27811   0.8667  97.8156 0003480 225.4106 124.8407  1.00271936 57837
0 BD 1 03
1 27813U 03021A   19080.86150409 -.00000302 +00000-0 +00000-0 0  9994
2 27813 006.3691 059.0503 0015151 249.1378 139.4206 00.99777639057922
0 AMC-9 (GE-12)
1 27820U 03024A   19081.82745883 -.00000244  00000-0  00000+0 0  9992
2 27820   1.4237  89.7310 0020027 264.5425 246.0219  0.99031056 57767
0 THURAYA 2
1 27825U 03026A   19081.16473160  .00000108  00000-0  00000+0 0  9990
2 27825   5.4842  31.5087 0004808 326.8078 284.3411  1.00272554 57828
0 BSAT-2C
1 27830U 03028A   19080.88296411 +.00000063 +00000-0 +00000-0 0  9999
2 27830 004.3584 071.0883 0009746 246.6405 245.2967 00.99197234020423
0 OPTUS C1
1 27831U 03028B   19081.83136483 -.00000174  00000-0  00000+0 0  9991
2 27831   0.3705 102.3080 0006166 267.5629 265.1427  1.00270751 57819
0 ECHOSTAR 12 (RAINBOW 1)
1 27852U 03033A   19081.57044604 -.00000224  00000-0  00000+0 0  9990
2 27852   0.0199 171.5371 0001441 183.6332 303.5828  1.00269697 57445
0 GALAXY 23 (TELSTAR 13)
1 27854U 03034A   19081.12757762 -.00000012  00000-0  00000+0 0  9995
2 27854   0.0060 186.6542 0002943 179.3562  98.2481  1.00272521 62030
0 USA 170
1 27875U 03040A   19081.79465814 -.00000292  00000-0  00000+0 0  9992
2 27875   4.9942  66.7550 0002544 312.6256  44.2908  1.00273345  5128
0 INSAT 3E
1 27951U 03043E   19081.49873816 -.00000274  00000-0  00000+0 0  9992
2 27951   3.8241  75.0893 0016103 206.1474 351.8576  1.00806483 56805
0 HORIZONS 1 (GALAXY 13)
1 27954U 03044A   19081.70592338  .00000023  00000-0  00000+0 0  9998
2 27954   0.0244 131.5936 0000150  78.4704  96.9485  1.00271321 56653
0 CHINASAT 20
1 28082U 03052A   19080.85705507 -.00000185 +00000-0 +00000-0 0  9990
2 28082 004.7805 068.3977 0003209 319.4948 035.6958 00.99110023056178
0 YAMAL 202
1 28089U 03053A   19081.16671137  .00000095  00000-0  00000+0 0  9992
2 28089   0.0489 105.0570 0004010 216.2499 327.0271  1.00269497 56164
0 YAMAL 201
1 28094U 03053B   19081.67277375 -.00000026  00000-0  00000+0 0  9995
2 28094   3.6235  76.6733 0006761 288.3312 123.8199  1.00236454 58352
0 UFO 11 (USA 174)
1 28117U 03057A   19081.45918774 -.00000124  00000-0  00000+0 0  9995
2 28117   5.5959  36.6655 0007183 302.8691  81.1021  1.00271800 55915
0 AMOS 2
1 28132U 03059A   19081.63744321  .00000022  00000-0  00000+0 0  9995
2 28132   2.1331  86.9981 0002859 284.7755 287.1100  0.99393080 55810
0 SESAT 2 (EXPRESS AM-22)
1 28134U 03060A   19081.44025757 -.00000252  00000-0  00000+0 0  9999
2 28134   1.8472  88.3293 0002999  57.0838 175.1933  0.99358604 55761
0 AMC-10 (GE-10)
1 28154U 04003A   19081.74718595  .00000015  00000-0  00000+0 0  9997
2 28154   0.2163  45.1178 0003632 322.5083 160.9234  0.99117039 55427
0 USA 176
1 28158U 04004A   19081.87175824 -.00000236  00000-0  00000+0 0  9994
2 28158   8.5904  41.8121 0001304 359.9337 179.5461  1.00272744  5102
0 MBSAT
1 28184U 04007A   19081.67163966  .00000015  00000-0  00000+0 0  9992
2 28184   0.0087 202.5167 0001902 169.9211 110.2647  1.00274490 55079
0 EUTE 7A (EUTE W3A)
1 28187U 04008A   19081.80451579  .00000023  00000-0  00000+0 0  9990
2 28187   0.0915  49.2478 0003206 322.6019 104.7456  1.00272721 55077
0 RADUGA 1-7
1 28194U 04010A   19080.83650078 -.00000384 +00000-0 +00000-0 0  9990
2 28194 010.5676 040.5632 0004351 269.6484 280.4030 01.00347878054894
0 SUPERBIRD 6
1 28218U 04011A   19081.02224875  .00000075  00000-0  00000+0 0  9997
2 28218  10.7661  35.6334 0033059 333.2250 223.3685  0.99459115 54153
0 EXPRESS AM-11
1 28234U 04015A   19080.88994299 -.00000147 +00000-0 +00000-0 0  9998
2 28234 009.6973 040.4917 0010917 269.3184 291.0352 00.99234434054178
0 DIRECTV 7S
1 28238U 04016A   19081.70749365 -.00000023  00000-0  00000+0 0  9999
2 28238   0.0182 180.9647 0003077 193.4281 301.1414  1.00270477 54546
0 AMC-11 (GE-11)
1 28252U 04017A   19081.54748580  .00000044  00000-0  00000+0 0  9998
2 28252   0.0128 158.8548 0002907 217.1638 229.8228  1.00269605 54198
0 INTELSAT 1002
1 28358U 04022A   19081.80304991 -.00000036  00000-0  00000+0 0  9996
2 28358   0.0178 238.6826 0003122 132.9245  96.4820  1.00271321 54121
0 APSTAR 5 (TELSTAR 18)
1 28364U 04024A   19081.83059933 -.00000318  00000-0  00000+0 0  9994
2 28364   0.3717  98.5492 0001517 305.2227 213.2711  1.00273175 54041
0 ANIK F2
1 28378U 04027A   19080.64820962 -.00000075  00000-0  00000+0 0  9998
2 28378   0.0210 167.9671 0000367 246.5436 246.6345  1.00270045 53834
0 GSAT 3 (EDUSAT)
1 28417U 04036A   19081.66226841  .00000003  00000-0  00000+0 0  9991
2 28417   6.3375  58.4838 0001928 284.1560 106.4695  0.99266908 52861
0 AMC-15
1 28446U 04041A   19081.56750823 -.00000113  00000-0  00000+0 0  9993
2 28446   0.0051 212.2427 0002814 152.8868 273.8686  1.00272295 52864
0 EXPRESS AM-1
1 28463U 04043A   19081.52377486  .00000031  00000-0  00000+0 0  9998
2 28463   6.5623  56.6903 0009882 214.7290 136.1679  0.99192589 52482
0 AMC-16
1 28472U 04048A   19081.57079499 -.00000231  00000-0  00000+0 0  9994
2 28472   0.0138 181.4953 0002827 165.7207 313.0508  1.00270931 52308
0 NSS 10 (AMC-12)
1 28526U 05003A   19081.18645017 -.00000276  00000-0  00000+0 0  9997
2 28526   0.0154 118.7007 0003029 248.1893 202.1538  1.00270927 51801
0 XTAR-EUR
1 28542U 05005A   19080.42320986 +.00000125 +00000-0 +00000-0 0  9991
2 28542 000.0212 116.0367 0003381 246.4920 357.4507 01.00271754051660
0 XM-3
1 28626U 05008A   19081.57070775 -.00000230  00000-0  00000+0 0  9999
2 28626   0.0450  13.1366 0000448 337.2020 309.7661  1.00268681 51558
0 INMARSAT 4-F1
1 28628U 05009A   19081.55356856 -.00000284  00000-0  00000+0 0  9996
2 28628   2.9686  21.2785 0003497 354.9661 146.2643  1.00272579 51163
